[{"OBJECT_NAME":"ARIRANG-5 (KOMPSAT-5)","OBJECT_ID":"2013-042A","EPOCH":"2026-03-10T00:02:57.181344","MEAN_MOTION":15.04553599,"ECCENTRICITY":0.00039005,"INCLINATION":97.62,"RA_OF_ASC_NODE":257.0804,"ARG_OF_PERICENTER":111.6826,"MEAN_ANOMALY":248.4816,"EPHEMERIS_TYPE":0,"CLASSIFICATION_TYPE":"U","NORAD_CAT_ID":39227,"ELEMENT_SET_NO":999,"REV_AT_EPOCH":68894,"BSTAR":0.00023956705,"MEAN_MOTION_DOT":3.298e-5,"MEAN_MOTION_DDOT":0},{"OBJECT_NAME":"STARLINK-4420","OBJECT_ID":"2022-105G","EPOCH":"2026-03-09T16:08:00.093120","MEAN_MOTION":15.05644598,"ECCENTRICITY":0.00020924,"INCLINATION":97.6024,"RA_OF_ASC_NODE":311.1617,"ARG_OF_PERICENTER":91.2741,"MEAN_ANOMALY":268.8726,"EPHEMERIS_TYPE":0,"CLASSIFICATION_TYPE":"U","NORAD_CAT_ID":53654,"ELEMENT_SET_NO":999,"REV_AT_EPOCH":19329,"BSTAR":3.3005245e-5,"MEAN_MOTION_DOT":4.15e-6,"MEAN_MOTION_DDOT":0}]
